{"fetched_at":"2026-03-29T16:36:15Z","count":15609,"tles":[{"name":"KUIPER-00061","line1":"1 64521U 25134X   26087.88167117  .00004044  00000+0  55916-3 0  9995","line2":"2 64521  51.9004 143.2258 0000575  76.3080 283.7947 14.79929562 42971","category":"Other"}]}